[{"OBJECT_NAME":"COSMOS 2567","OBJECT_ID":"2023-040A","EPOCH":"2026-03-09T23:38:00.899232","MEAN_MOTION":15.24128007,"ECCENTRICITY":0.00028166,"INCLINATION":97.5865,"RA_OF_ASC_NODE":353.8755,"ARG_OF_PERICENTER":82.0927,"MEAN_ANOMALY":278.063,"EPHEMERIS_TYPE":0,"CLASSIFICATION_TYPE":"U","NORAD_CAT_ID":55978,"ELEMENT_SET_NO":999,"REV_AT_EPOCH":16494,"BSTAR":0.00023360479,"MEAN_MOTION_DOT":5.606e-5,"MEAN_MOTION_DDOT":0},{"OBJECT_NAME":"CZ-6A DEB","OBJECT_ID":"2024-140ZB","EPOCH":"2026-03-09T13:53:53.181600","MEAN_MOTION":15.04943741,"ECCENTRICITY":0.0099448,"INCLINATION":89.0521,"RA_OF_ASC_NODE":283.407,"ARG_OF_PERICENTER":138.6562,"MEAN_ANOMALY":222.2259,"EPHEMERIS_TYPE":0,"CLASSIFICATION_TYPE":"U","NORAD_CAT_ID":61434,"ELEMENT_SET_NO":999,"REV_AT_EPOCH":8386,"BSTAR":0.0022399,"MEAN_MOTION_DOT":0.00035579,"MEAN_MOTION_DDOT":0}]
